satname,norad_id,inclination_deg,eccentricity,mean_motion_rev_per_day,perigee_km,apogee_km,l1,l2
STARLINK-1573,46061,53.1601,0.0001221,15.31700348,469.9027101014981,471.57520561040656,1 46061U 20055AL  26193.48979692  .00000165  00000+0  17080-4 0  9995,2 46061  53.1601 253.2173 0001221  67.6857 292.4273 15.31700348328197
STARLINK-1577,46063,53.1574,0.0004587,15.3172196,467.5329845396218,473.8160842412717,1 46063U 20055AN  26193.58300976 -.00005762  00000+0 -17381-3 0  9994,2 46063  53.1574 252.7770 0004587  88.5610 271.5917 15.31721960328200
STARLINK-1583,46064,53.16,0.0001283,15.31713711,469.8204180783159,471.5778294276706,1 46064U 20055AP  26193.46654246  .00001204  00000+0  50537-4 0  9990,2 46064  53.1600 253.8217 0001283  75.3233 284.7911 15.31713711328175
STARLINK-1536,46070,53.1582,0.0001179,15.31703098,469.9232787554847,471.53824177335446,1 46070U 20055AV  26193.59834572 -.00001127  00000+0 -24555-4 0  9990,2 46070  53.1582 240.5931 0001179  77.7480 282.3654 15.31703098328378
STARLINK-1542,46073,53.1581,0.0001067,15.31725808,469.9322970339517,471.39383096760866,1 46073U 20055AY  26193.62270229 -.00006759  00000+0 -20607-3 0  9999,2 46073  53.1581 243.4474 0001067  80.3875 279.7246 15.31725808328323
STARLINK-1549,46074,53.0485,0.0002153,15.34368464,461.3241203659236,464.26982653489176,1 46074U 20055AZ  26193.50333916  .00021615  00000+0  64961-3 0  9997,2 46074  53.0485 240.6078 0002153  34.9857 325.1286 15.34368464328332
STARLINK-1551,46075,53.1599,0.0001382,15.316966,469.80361426604304,471.6966466689046,1 46075U 20055BA  26192.15385291 -.00000884  00000+0 -16716-4 0  9994,2 46075  53.1599 247.2572 0001382  76.4533 283.6622 15.31696600328141
STARLINK-1552,46076,53.158,0.0001209,15.31694405,469.9286424351285,471.5847049254244,1 46076U 20055BB  26193.51006970  .00004355  00000+0  15206-3 0  9997,2 46076  53.1580 240.5233 0001209  78.6375 281.4762 15.31694405328342
STARLINK-1559,46077,53.019,0.0004689,15.41598518,438.19334982628607,444.5887032095543,1 46077U 20055BC  26193.44948881  .00033361  00000+0  78702-3 0  9995,2 46077  53.0190 207.7331 0004689  26.8206 333.3040 15.41598518328756
STARLINK-1566,46079,53.1588,0.0001316,15.31714163,469.7964697283751,471.5990830415194,1 46079U 20055BE  26193.44945430 -.00004377  00000+0 -12930-3 0  9992,2 46079  53.1588 240.6605 0001316  80.2191 279.8959 15.31714163328355
STARLINK-1568,46080,53.0548,0.0003131,15.57207944,393.6210919327996,397.8628949584954,1 46080U 20055BF  26193.37547505  .00031811  00000+0  43438-3 0  9995,2 46080  53.0548 153.1858 0003131 100.9524 259.1840 15.57207944329552
STARLINK-1578,46082,53.1596,0.0001099,15.31701498,469.98283867821556,471.4882208602594,1 46082U 20055BH  26193.64959870 -.00000423  00000+0 -18646-5 0  9991,2 46082  53.1596 240.2451 0001099  74.5230 285.5892 15.31701498328370
STARLINK-1579,46083,53.158,0.0001112,15.31701528,469.97384572557894,471.4970349563109,1 46083U 20055BJ  26193.44014429 -.00000107  00000+0  83267-5 0  9991,2 46083  53.1580 240.7535 0001112  71.9442 288.1681 15.31701528328340
STARLINK-1622,46128,53.0067,0.001257,16.090408,241.1450270179821,257.80684594029117,1 46128U 20057M   26194.01112286  .00699266  26849-3  76374-3 0  9998,2 46128  53.0067 315.6535 0012570 316.0253  43.9779 16.09040800327163
STARLINK-1623,46129,53.0357,0.0002898,15.86000782,311.56902109073144,315.447498683362,1 46129U 20057N   26193.91668980  .00209001  00000+0  81385-3 0  9993,2 46129  53.0357 358.2285 0002898 274.3963  75.2449 15.86000782  6049
STARLINK-1596,46141,53.0334,0.0002125,15.66051448,368.7824772280719,371.65052746656966,1 46141U 20057AA  26193.68162532  .00049797  00000+0  47963-3 0  9991,2 46141  53.0334 346.1971 0002125 212.3272 147.7612 15.66051448326724
STARLINK-1597,46142,53.0368,0.0004025,15.84575598,314.8250142528059,320.21501815084866,1 46142U 20057AB  26193.91668980  .00147277  00000+0  61933-3 0  9991,2 46142  53.0368  38.1521 0004025 226.8017 169.1776 15.84575598  6056
STARLINK-1608,46146,53.1569,0.0005115,15.39347381,444.54639016889814,451.5295671720778,1 46146U 20057AF  26193.10531404  .00033884  00000+0  86069-3 0  9991,2 46146  53.1569  88.2544 0005115  98.4876 261.6709 15.39347381325271
STARLINK-1545,46156,53.0194,0.0010701,16.43205886,150.2947166729873,164.28183384709791,1 46156U 20057AR  26193.89902593  .09897584  12515-4  37208-3 0  9993,2 46156  53.0194 350.4530 0010701 290.7741  69.2160 16.43205886327925
STARLINK-1595,46159,53.0371,0.0003519,15.8135851,324.2385617904065,328.95735425386283,1 46159U 20057AU  26193.80856979  .00145804  00000+0  71341-3 0  9992,2 46159  53.0371  42.1058 0003519 205.4290 154.6559 15.81358510327202
STARLINK-1598,46160,53.0427,0.000347,15.79770049,328.76351644069837,333.41972110212646,1 46160U 20057AV  26193.80142382  .00117862  00000+0  62297-3 0  9993,2 46160  53.0427  28.5291 0003470 293.3324  66.7332 15.79770049327386
STARLINK-1626,46167,53.0366,0.0005289,15.85228835,312.140110432807,319.22083055309395,1 46167U 20057BC  26193.76255088  .00168353  00000+0  68381-3 0  9994,2 46167  53.0366  37.0974 0005289 259.3054 100.7373 15.85228835326011
STARLINK-1633,46171,53.0266,0.0010935,16.02033631,261.5192349944673,276.0560591976664,1 46171U 20057BG  26193.84313269  .00453851  10249-3  76757-3 0  9990,2 46171  53.0266 354.8500 0010935 300.5223  59.4727 16.02033631327866
STARLINK-1640,46173,53.0367,0.0002927,15.81687854,323.7050016172161,327.6294085988857,1 46173U 20057BJ  26193.91668980  .00046120  00000+0  22720-3 0  9991,2 46173  53.0367  42.5620 0002927 205.2698 220.7792 15.81687854  6051
STARLINK-1641,46174,53.0446,0.0003075,15.68465555,361.2172411243382,365.3632188707861,1 46174U 20057BK  26193.77247111  .00062316  00000+0  54227-3 0  9997,2 46174  53.0446  37.8480 0003075 257.0661 103.0012 15.68465555326006
STARLINK-1695,46329,53.0383,0.0004247,15.85511605,312.04204254928027,317.72709506982665,1 46329U 20062E   26193.91668980  .00109396  00000+0  44247-3 0  9993,2 46329  53.0383  79.2083 0004247 235.4116 147.0695 15.85511605  5897
STARLINK-1719,46331,53.0275,0.0006213,15.98489623,274.47277276511795,282.7444448586275,1 46331U 20062G   26193.91668980  .00364951  66375-4  76171-3 0  9999,2 46331  53.0275  76.4547 0006213 234.2097 301.4599 15.98489623  6061
STARLINK-1759,46340,53.0035,0.0006696,16.10701933,240.48360601518107,249.35320181210227,1 46340U 20062R   26193.97039743  .00935318  51955-3  92672-3 0  9996,2 46340  53.0035  64.2119 0006696 246.5031 113.5299 16.10701933324714
